CCSDS_OMM_VERS = 2.0
CREATION_DATE  = 
ORIGINATOR     = 

OBJECT_NAME    = SL-14 R/B
OBJECT_ID      = 1991-042B
CENTER_NAME    = EARTH
REF_FRAME      = TEME
TIME_SYSTEM    = UTC
MEAN_ELEMENT_THEORY = SGP/SGP4

EPOCH          = 2026-02-12T00:43:29.440704
MEAN_MOTION    = 14.81804313
ECCENTRICITY   = .0016305
INCLINATION    = 82.4898
RA_OF_ASC_NODE = 244.2493
ARG_OF_PERICENTER = 330.0826
MEAN_ANOMALY   = 29.9454

EPHEMERIS_TYPE = 0
CLASSIFICATION_TYPE = U
NORAD_CAT_ID   = 21423
ELEMENT_SET_NO = 999
REV_AT_EPOCH   = 84927
BSTAR          = .52965E-4
MEAN_MOTION_DOT = .442E-5
MEAN_MOTION_DDOT = 0

CCSDS_OMM_VERS = 2.0
CREATION_DATE  = 
ORIGINATOR     = 

OBJECT_NAME    = ERS-1
OBJECT_ID      = 1991-050A
CENTER_NAME    = EARTH
REF_FRAME      = TEME
TIME_SYSTEM    = UTC
MEAN_ELEMENT_THEORY = SGP/SGP4

EPOCH          = 2026-02-12T01:08:33.408960
MEAN_MOTION    = 14.39428488
ECCENTRICITY   = .0030908
INCLINATION    = 98.7894
RA_OF_ASC_NODE = 60.6373
ARG_OF_PERICENTER = 278.6862
MEAN_ANOMALY   = 81.0824

EPHEMERIS_TYPE = 0
CLASSIFICATION_TYPE = U
NORAD_CAT_ID   = 21574
ELEMENT_SET_NO = 999
REV_AT_EPOCH   = 81204
BSTAR          = .14369E-3
MEAN_MOTION_DOT = .403E-5
MEAN_MOTION_DDOT = 0

CCSDS_OMM_VERS = 2.0
CREATION_DATE  = 
ORIGINATOR     = 

OBJECT_NAME    = ARIANE 40 R/B
OBJECT_ID      = 1991-050F
CENTER_NAME    = EARTH
REF_FRAME      = TEME
TIME_SYSTEM    = UTC
MEAN_ELEMENT_THEORY = SGP/SGP4

EPOCH          = 2026-02-12T03:49:43.563936
MEAN_MOTION    = 14.42874631
ECCENTRICITY   = .0003973
INCLINATION    = 98.2068
RA_OF_ASC_NODE = 96.3471
ARG_OF_PERICENTER = 137.4020
MEAN_ANOMALY   = 222.7479

EPHEMERIS_TYPE = 0
CLASSIFICATION_TYPE = U
NORAD_CAT_ID   = 21610
ELEMENT_SET_NO = 999
REV_AT_EPOCH   = 81531
BSTAR          = .11404E-3
MEAN_MOTION_DOT = .339E-5
MEAN_MOTION_DDOT = 0

CCSDS_OMM_VERS = 2.0
CREATION_DATE  = 
ORIGINATOR     = 

OBJECT_NAME    = INTERCOSMOS 25
OBJECT_ID      = 1991-086A
CENTER_NAME    = EARTH
REF_FRAME      = TEME
TIME_SYSTEM    = UTC
MEAN_ELEMENT_THEORY = SGP/SGP4

EPOCH          = 2026-02-12T03:30:34.899264
MEAN_MOTION    = 12.11929086
ECCENTRICITY   = .1486842
INCLINATION    = 82.6086
RA_OF_ASC_NODE = 325.4439
ARG_OF_PERICENTER = 171.9604
MEAN_ANOMALY   = 190.8498

EPHEMERIS_TYPE = 0
CLASSIFICATION_TYPE = U
NORAD_CAT_ID   = 21819
ELEMENT_SET_NO = 999
REV_AT_EPOCH   = 49359
BSTAR          = .31585E-3
MEAN_MOTION_DOT = .1627E-4
MEAN_MOTION_DDOT = 0

CCSDS_OMM_VERS = 2.0
CREATION_DATE  = 
ORIGINATOR     = 

OBJECT_NAME    = SL-8 R/B
OBJECT_ID      = 1992-008B
CENTER_NAME    = EARTH
REF_FRAME      = TEME
TIME_SYSTEM    = UTC
MEAN_ELEMENT_THEORY = SGP/SGP4

EPOCH          = 2026-02-12T03:27:34.583328
MEAN_MOTION    = 13.75969713
ECCENTRICITY   = .0033984
INCLINATION    = 82.9259
RA_OF_ASC_NODE = 286.7831
ARG_OF_PERICENTER = 204.1648
MEAN_ANOMALY   = 309.6962

EPHEMERIS_TYPE = 0
CLASSIFICATION_TYPE = U
NORAD_CAT_ID   = 21876
ELEMENT_SET_NO = 999
REV_AT_EPOCH   = 70590
BSTAR          = .18762E-4
MEAN_MOTION_DOT = .33E-6
MEAN_MOTION_DDOT = 0

CCSDS_OMM_VERS = 2.0
CREATION_DATE  = 
ORIGINATOR     = 

OBJECT_NAME    = SL-8 R/B
OBJECT_ID      = 1992-020B
CENTER_NAME    = EARTH
REF_FRAME      = TEME
TIME_SYSTEM    = UTC
MEAN_ELEMENT_THEORY = SGP/SGP4

EPOCH          = 2026-02-11T21:10:46.145856
MEAN_MOTION    = 13.75545870
ECCENTRICITY   = .0029095
INCLINATION    = 82.9334
RA_OF_ASC_NODE = 172.9165
ARG_OF_PERICENTER = 12.5203
MEAN_ANOMALY   = 111.5349

EPHEMERIS_TYPE = 0
CLASSIFICATION_TYPE = U
NORAD_CAT_ID   = 21938
ELEMENT_SET_NO = 999
REV_AT_EPOCH   = 69758
BSTAR          = .11085E-3
MEAN_MOTION_DOT = .122E-5
MEAN_MOTION_DDOT = 0

CCSDS_OMM_VERS = 2.0
CREATION_DATE  = 
ORIGINATOR     = 

OBJECT_NAME    = USA 81
OBJECT_ID      = 1992-023A
CENTER_NAME    = EARTH
REF_FRAME      = TEME
TIME_SYSTEM    = UTC
MEAN_ELEMENT_THEORY = SGP/SGP4

EPOCH          = 2026-02-11T17:47:45.771936
MEAN_MOTION    = 14.32358479
ECCENTRICITY   = .00026857
INCLINATION    = 85.0120
RA_OF_ASC_NODE = 146.4035
ARG_OF_PERICENTER = 101.0186
MEAN_ANOMALY   = 259.1309

EPHEMERIS_TYPE = 0
CLASSIFICATION_TYPE = U
NORAD_CAT_ID   = 21949
ELEMENT_SET_NO = 999
REV_AT_EPOCH   = 9107
BSTAR          = .70156759E-4
MEAN_MOTION_DOT = .209E-5
MEAN_MOTION_DDOT = 0

CCSDS_OMM_VERS = 2.0
CREATION_DATE  = 
ORIGINATOR     = 

OBJECT_NAME    = COSMOS 2219
OBJECT_ID      = 1992-076A
CENTER_NAME    = EARTH
REF_FRAME      = TEME
TIME_SYSTEM    = UTC
MEAN_ELEMENT_THEORY = SGP/SGP4

EPOCH          = 2026-02-12T03:01:17.817888
MEAN_MOTION    = 14.14076683
ECCENTRICITY   = .0020189
INCLINATION    = 71.0578
RA_OF_ASC_NODE = 71.5108
ARG_OF_PERICENTER = 241.8281
MEAN_ANOMALY   = 118.0802

EPHEMERIS_TYPE = 0
CLASSIFICATION_TYPE = U
NORAD_CAT_ID   = 22219
ELEMENT_SET_NO = 999
REV_AT_EPOCH   = 71476
BSTAR          = .37948E-4
MEAN_MOTION_DOT = .25E-6
MEAN_MOTION_DDOT = 0

CCSDS_OMM_VERS = 2.0
CREATION_DATE  = 
ORIGINATOR     = 

OBJECT_NAME    = SL-16 R/B
OBJECT_ID      = 1992-076B
CENTER_NAME    = EARTH
REF_FRAME      = TEME
TIME_SYSTEM    = UTC
MEAN_ELEMENT_THEORY = SGP/SGP4

EPOCH          = 2026-02-12T00:23:34.699776
MEAN_MOTION    = 14.16855997
ECCENTRICITY   = .0011293
INCLINATION    = 70.9978
RA_OF_ASC_NODE = 242.4542
ARG_OF_PERICENTER = 142.4325
MEAN_ANOMALY   = 11.2115

EPHEMERIS_TYPE = 0
CLASSIFICATION_TYPE = U
NORAD_CAT_ID   = 22220
ELEMENT_SET_NO = 999
REV_AT_EPOCH   = 71819
BSTAR          = -.24753E-4
MEAN_MOTION_DOT = -.98E-6
MEAN_MOTION_DDOT = 0

CCSDS_OMM_VERS = 2.0
CREATION_DATE  = 
ORIGINATOR     = 

OBJECT_NAME    = COSMOS 2221
OBJECT_ID      = 1992-080A
CENTER_NAME    = EARTH
REF_FRAME      = TEME
TIME_SYSTEM    = UTC
MEAN_ELEMENT_THEORY = SGP/SGP4

EPOCH          = 2026-02-12T03:44:41.989056
MEAN_MOTION    = 14.96100497
ECCENTRICITY   = .0012803
INCLINATION    = 82.5053
RA_OF_ASC_NODE = 303.5358
ARG_OF_PERICENTER = 280.7424
MEAN_ANOMALY   = 79.2356

EPHEMERIS_TYPE = 0
CLASSIFICATION_TYPE = U
NORAD_CAT_ID   = 22236
ELEMENT_SET_NO = 999
REV_AT_EPOCH   = 77697
BSTAR          = .17407E-3
MEAN_MOTION_DOT = .1985E-4
MEAN_MOTION_DDOT = 0

CCSDS_OMM_VERS = 2.0
CREATION_DATE  = 
ORIGINATOR     = 

OBJECT_NAME    = SL-16 R/B
OBJECT_ID      = 1992-093B
CENTER_NAME    = EARTH
REF_FRAME      = TEME
TIME_SYSTEM    = UTC
MEAN_ELEMENT_THEORY = SGP/SGP4

EPOCH          = 2026-02-12T03:45:55.689120
MEAN_MOTION    = 14.15441522
ECCENTRICITY   = .0005247
INCLINATION    = 71.0200
RA_OF_ASC_NODE = 57.8668
ARG_OF_PERICENTER = 320.9390
MEAN_ANOMALY   = 39.1354

EPHEMERIS_TYPE = 0
CLASSIFICATION_TYPE = U
NORAD_CAT_ID   = 22285
ELEMENT_SET_NO = 999
REV_AT_EPOCH   = 70954
BSTAR          = .886E-4
MEAN_MOTION_DOT = .125E-5
MEAN_MOTION_DDOT = 0

CCSDS_OMM_VERS = 2.0
CREATION_DATE  = 
ORIGINATOR     = 

OBJECT_NAME    = COSMOS 2228
OBJECT_ID      = 1992-094A
CENTER_NAME    = EARTH
REF_FRAME      = TEME
TIME_SYSTEM    = UTC
MEAN_ELEMENT_THEORY = SGP/SGP4

EPOCH          = 2026-02-12T02:56:03.979392
MEAN_MOTION    = 14.97070455
ECCENTRICITY   = .0018846
INCLINATION    = 82.5155
RA_OF_ASC_NODE = 261.7941
ARG_OF_PERICENTER = 32.0117
MEAN_ANOMALY   = 328.2246

EPHEMERIS_TYPE = 0
CLASSIFICATION_TYPE = U
NORAD_CAT_ID   = 22286
ELEMENT_SET_NO = 999
REV_AT_EPOCH   = 77223
BSTAR          = .16558E-3
MEAN_MOTION_DOT = .1941E-4
MEAN_MOTION_DDOT = 0

