SL-14 R/B               
1 21423U 91042B   26043.03020186  .00000442  00000+0  52965-4 0  9993
2 21423  82.4898 244.2493 0016305 330.0826  29.9454 14.81804313849274
ERS-1                   
1 21574U 91050A   26043.04760890  .00000403  00000+0  14369-3 0  9995
2 21574  98.7894  60.6373 0030908 278.6862  81.0824 14.39428488812049
ARIANE 40 R/B           
1 21610U 91050F   26043.15953199  .00000339  00000+0  11404-3 0  9999
2 21610  98.2068  96.3471 0003973 137.4020 222.7479 14.42874631815315
INTERCOSMOS 25          
1 21819U 91086A   26043.14623726  .00001627  00000+0  31585-3 0  9991
2 21819  82.6086 325.4439 1486842 171.9604 190.8498 12.11929086493592
SL-8 R/B                
1 21876U 92008B   26043.14415027  .00000033  00000+0  18762-4 0  9995
2 21876  82.9259 286.7831 0033984 204.1648 309.6962 13.75969713705905
SL-8 R/B                
1 21938U 92020B   26042.88247854  .00000122  00000+0  11085-3 0  9998
2 21938  82.9334 172.9165 0029095  12.5203 111.5349 13.75545870697587
USA 81                  
1 21949U 92023A   26042.74150199  .00000209  00000+0  70157-4 0  9995
2 21949  85.0120 146.4035 0002685 101.0186 259.1309 14.32358479 91076
COSMOS 2219             
1 22219U 92076A   26043.12590067  .00000025  00000+0  37948-4 0  9996
2 22219  71.0578  71.5108 0020189 241.8281 118.0802 14.14076683714769
SL-16 R/B               
1 22220U 92076B   26043.01637384 -.00000098  00000+0 -24753-4 0  9992
2 22220  70.9978 242.4542 0011293 142.4325  11.2115 14.16855997718192
COSMOS 2221             
1 22236U 92080A   26043.15604154  .00001985  00000+0  17407-3 0  9999
2 22236  82.5053 303.5358 0012803 280.7424  79.2356 14.96100497776977
SL-16 R/B               
1 22285U 92093B   26043.15689455  .00000125  00000+0  88600-4 0  9993
2 22285  71.0200  57.8668 0005247 320.9390  39.1354 14.15441522709544
COSMOS 2228             
1 22286U 92094A   26043.12226828  .00001941  00000+0  16558-3 0  9992
2 22286  82.5155 261.7941 0018846  32.0117 328.2246 14.97070455772239
